# Made by eph2tle, compiled Sep 22 2023 13:12:59
# Run at Tue Oct  3 21:16:19 2023
#
#    The following TLEs (Two-Line Elements) were generated by fitting
# a numerically-integrated ephemeris,  based on the orbit given below,
# to the SDP4/SGP4 models.  Each TLE is good for the interval between
# its epoch and the epoch of the subsequent TLE (usually one day).
# The maximum deviation between the numerically integrated ephemerides
# and the TLE-based ephemeris, in kilometers,  is given for each TLE
# as the "worst residual".
#
#    This fitting is done using the 'eph2tle' code packaged with Find_Orb.
# The code has details on how the TLEs were computed :
#
#    https://github.com/Bill-Gray/find_orb/eph2tle.cpp
#
#    Be warned:  the error given is that between the numerically
# integrated ephems and the TLE model.  There will usually be at
# least some additional difference between the ephems and the actual
# motion of the satellite,  especially if the ephemerides are based
# on a short arc.  If the following orbital elements say something
# like "[based on] 10 observations 2015 Jan. 1-13",  and the TLEs
# are for 2015 May,  the extrapolation may be tenuous at best.  If
# your application requires a specific level of accuracy,  you may
# want to contact me;  I can give you some idea as to the fit of the
# underlying data (and possibly TLEs based on newer data).
#
#   You can usually find the underlying observational data,  and the
# fitted orbit,  residuals,  ephemerides,  and sometimes some comments
# about the object,  among the pages listed at
#
#    https://www.projectpluto.com/pluto/mpecs/pseudo.htm
#
#    WARNING:  for this object,  "normal" TLEs cannot be fitted.  (This
# usually means an object with an hyperbolic or nearly-parabolic orbit.)
# For this and similar cases,   an alternative model is used,  in which
# most of the traditional TLE data is replaced by six signed 8-digit hex
# numbers.  These six numbers are a state vector,  numerically integrated
# using a simplified force model.  This is necessary for objects at L2 or
# L1,  and sometimes for objects in high orbits where the SDP4/SGP4 model
# fails.  Some documentation is in 'get_el.cpp' in the source code at
# https://www.github.com/Bill-Gray/sat_code ; look for 'hex' in that file,
# with the actual integration done in 'sdp4.cpp'.  But be aware:  it's my
# own extension,  doesn't work with other code,  and is therefore used
# only when necessary.
#
#    Also,  if you use a TLE outside the "correct" time range (between
# its MJD and that of the next TLE),  all bets are off.  I've carefully
# computed and minimized the worst error over the "correct" time frame,
# but the ephemeris may (or may not) diverge wildly outside of it.
#
# Ephem range: 60167.000000 60366.000000 1.000000
# Created Tue Oct  3 21:15:09 2023
# Ephemeris start: 11 Aug 2023  0:00:00
# Ephemeris end:   26 Feb 2024  0:00:00
# Times are all TDT
# Positions/velocities are in equatorial J2000
# Orbital elements:  Luna-25 Fregat stage
#    Perigee 2023 Sep 28.304163 TT =  7:17:59.6 (JD 2460215.804163)
# Epoch 2023 Sep 30.685342 TT = JDT 2460218.185342                 Find_Orb
# M  77.531367568                     (J2000 equator)
# n  32.560077263    Peri.  199.274124
# a209642.7694km     Node   128.000853
# e   0.90420744     Incl.   48.520853
# P  11.06d          H   25.04    G   0.15   q 20082.21682km  Q 399203.3221km
#
# 1 NoradU COSPAR   Epoch.epoch     dn/dt/2  d2n/dt2/6 BSTAR    T El# C
# 2 NoradU Inclina RAAscNode Eccent  ArgPeri MeanAno  MeanMotion Rev# C

# Worst residual: 273.07 km
# MJD 60167.000000 (2023 Aug 11  0:00)
Luna-25 Fregat stage
1 57601U 23118B   23222.99919926 +0000I9BS -000396O4 -0003TTL8H 21030
2 57601                          +001BS0PW +000ATO9C +000TH8XE     09

# Worst residual: 0.94 km
# MJD 60168.000000 (2023 Aug 12  0:00)
Luna-25 Fregat stage
1 57601U 23118B   23223.99919926 -00273BK7 +001YE3HZ +001NL9HQH 21031
2 57601                          -00073VFR +0004AS6C +0002UV1J     05

# Worst residual: 0.98 km
# MJD 60169.000000 (2023 Aug 13  0:00)
Luna-25 Fregat stage
1 57601U 23118B   23224.99919926 -003LSXXM +002QOK9X +0024X9HZH 21038
2 57601                          -0004VPYK +0002I7NR +0001DS0I     06

# Worst residual: 2.49 km
# MJD 60170.000000 (2023 Aug 14  0:00)
Luna-25 Fregat stage
1 57601U 23118B   23225.99919926 -004LQOVL +0037ZLD7 +002DGCFKH 21033
2 57601                          -0003IDBC +0001KOOV +0000NHWN     06

# Worst residual: 5.67 km
# MJD 60171.000000 (2023 Aug 15  0:00)
Luna-25 Fregat stage
1 57601U 23118B   23226.99919926 -005B6VQH +003ISYX2 +002GW3WLH 21032
2 57601                          -0002EB0L +0000YZEY +00006407     01

# Worst residual: 62.87 km
# MJD 60172.000000 (2023 Aug 16  0:00)
Luna-25 Fregat stage
1 57601U 23118B   23227.99919926 -005QO3PT +003PKF3S +002GLYQ8H 21036
2 57601                          -00011UH8 +0000MUGM -00009HMD     02

# Worst residual: 35.41 km
# MJD 60173.000000 (2023 Aug 17  0:00)
Luna-25 Fregat stage
1 57601U 23118B   23228.99919926 -005RCR7L +003QPTBF +0029S2VZH 21031
2 57601                          +0000L0G8 -0000IY7S -0001A9SM     08

# Worst residual: 7.11 km
# MJD 60174.000000 (2023 Aug 18  0:00)
Luna-25 Fregat stage
1 57601U 23118B   23229.99919926 -005ITJY2 +003I7P9Y +001WHA3SH 21034
2 57601                          +0001EWOK -0001DVLW -0001R5A6     07

# Worst residual: 2.35 km
# MJD 60175.000000 (2023 Aug 19  0:00)
Luna-25 Fregat stage
1 57601U 23118B   23230.99919926 -00529JIR +0032ZMI4 +001FOYT3H 21035
2 57601                          +0002GUKK -00025DRG -00024NFI     08

# Worst residual: 0.73 km
# MJD 60176.000000 (2023 Aug 20  0:00)
Luna-25 Fregat stage
1 57601U 23118B   23231.99919926 -004AXSJT +002GLBXJ +000VNXGMH 21033
2 57601                          +0003YPEW -00032ZLI -0002IDY2     05

# Worst residual: 0.15 km
# MJD 60177.000000 (2023 Aug 21  0:00)
Luna-25 Fregat stage
1 57601U 23118B   23232.99919926 -0032GT2S +001K6T2I +00089TNOH 21031
2 57601                          +0006OXRI -0004KYC4 -0002W7BR     06

# Worst residual: 59.35 km
# MJD 60178.000000 (2023 Aug 22  0:00)
Luna-25 Fregat stage
1 57601U 23118B   23233.99919926 -000BUV3G -00007K60 -000BPSO1H 21038
2 57601                          +000SCQ56 -000AJMYZ +0005PWFJ     08

# Worst residual: 0.41 km
# MJD 60179.000000 (2023 Aug 23  0:00)
Luna-25 Fregat stage
1 57601U 23118B   23234.99919926 -001PNBP6 +001TARGS +0020ZR8IH 21038
2 57601                          -0006QEQR +00050BLB +0003ON2R     08

# Worst residual: 0.46 km
# MJD 60180.000000 (2023 Aug 24  0:00)
Luna-25 Fregat stage
1 57601U 23118B   23235.99919926 -00325YN3 +002QZB1Q +002MMG87H 21034
2 57601                          -0004PZFF +0003253P +0001NM69     05

# Worst residual: 0.45 km
# MJD 60181.000000 (2023 Aug 25  0:00)
Luna-25 Fregat stage
1 57601U 23118B   23236.99919926 -0041CTK4 +003CK13K +002WEIMVH 21030
2 57601                          -0003HSDO +00020CBK +0000OW5C     02

# Worst residual: 0.35 km
# MJD 60182.000000 (2023 Aug 26  0:00)
Luna-25 Fregat stage
1 57601U 23118B   23237.99919926 -004RCIMO +003QJJ0Y +002ZHW74H 21033
2 57601                          -0002JX97 +00019CQ7 +000025AR     04

# Worst residual: 0.30 km
# MJD 60183.000000 (2023 Aug 27  0:00)
Luna-25 Fregat stage
1 57601U 23118B   23238.99919926 -0059UTFB +003YPO4F +002XV6ALH 21033
2 57601                          -0001QUCS +0000NAIT -0000F3CE     07

# Worst residual: 0.35 km
# MJD 60184.000000 (2023 Aug 28  0:00)
Luna-25 Fregat stage
1 57601U 23118B   23239.99919926 -005LOHAU +0041WPGU +002SHH7LH 21034
2 57601                          -0000ZVPU +00003L1S -0000TDSM     07

# Worst residual: 0.47 km
# MJD 60185.000000 (2023 Aug 29  0:00)
Luna-25 Fregat stage
1 57601U 23118B   23240.99919926 -005R3S9M +0040HXZH +002JW4IRH 21034
2 57601                          -000098WT -0000FAX9 -00016115     04

# Worst residual: 0.51 km
# MJD 60186.000000 (2023 Aug 30  0:00)
Luna-25 Fregat stage
1 57601U 23118B   23241.99919926 -005Q0FF5 +003UJ33Y +0028DLTXH 21037
2 57601                          +0000IQMP -0000YLP8 -0001HU83     03

# Worst residual: 0.46 km
# MJD 60187.000000 (2023 Aug 31  0:00)
Luna-25 Fregat stage
1 57601U 23118B   23242.99919926 -005HTXDT +003JQZDS +001U2FN4H 21034
2 57601                          +0001E9BJ -0001JNYZ -0001TF42     01

# Worst residual: 0.57 km
# MJD 60188.000000 (2023 Sep  1  0:00)
Luna-25 Fregat stage
1 57601U 23118B   23243.99919926 -0051BF8Y +0033IE3O +001CYAANH 21034
2 57601                          +0002H1E9 -00028J9M -00025ARO     01

# Worst residual: 0.48 km
# MJD 60189.000000 (2023 Sep  2  0:00)
Luna-25 Fregat stage
1 57601U 23118B   23244.99919926 -0049VCRP +002GGPZW +000SWJFYH 21036
2 57601                          +0003ZKOA -00035H4S -0002HWOV     00

# Worst residual: 0.67 km
# MJD 60190.000000 (2023 Sep  3  0:00)
Luna-25 Fregat stage
1 57601U 23118B   23245.99919926 -003102J6 +001JEL7R +0005SZMSH 21037
2 57601                          +0006RWUL -0004O8WC -0002TYGR     03

# Worst residual: 63.62 km
# MJD 60191.000000 (2023 Sep  4  0:00)
Luna-25 Fregat stage
1 57601U 23118B   23246.99919926 -00067TRO -0002BAKB -000AMCH4H 21034
2 57601                          +000WCL7F -0009MD6H +000BXUV1     05

# Worst residual: 0.70 km
# MJD 60192.000000 (2023 Sep  5  0:00)
Luna-25 Fregat stage
1 57601U 23118B   23247.99919926 -001PZQBA +001UJ9G3 +002191EGH 21031
2 57601                          -0006OI1P +0004ZUO2 +0003JOFV     08

# Worst residual: 0.73 km
# MJD 60193.000000 (2023 Sep  6  0:00)
Luna-25 Fregat stage
1 57601U 23118B   23248.99919926 -00327CTM +002S2Q9N +002LUKRSH 21032
2 57601                          -0004P128 +000317ON +0001JM52     06

# Worst residual: 0.98 km
# MJD 60194.000000 (2023 Sep  7  0:00)
Luna-25 Fregat stage
1 57601U 23118B   23249.99919926 -00415XDK +003DAXRD +002UO5C5H 21031
2 57601                          -0003GPOP +0001YBXP +0000KUB9     05

